<?xml version="1.0" encoding="UTF-8"?>
<ndm xmlns:xsi="http://www.w3.org/2001/XMLSchema-instance" xsi:noNamespaceSchemaLocation="https://sanaregistry.org/r/ndmxml_unqualified/ndmxml-2.0.0-master-2.0.xsd">
<omm id="CCSDS_OMM_VERS" version="2.0">
<header><CREATION_DATE/><ORIGINATOR/></header><body><segment><metadata><OBJECT_NAME>ORBCOMM FM20</OBJECT_NAME><OBJECT_ID>1998-046D</OBJECT_ID><CENTER_NAME>EARTH</CENTER_NAME><REF_FRAME>TEME</REF_FRAME><TIME_SYSTEM>UTC</TIME_SYSTEM><MEAN_ELEMENT_THEORY>SGP4</MEAN_ELEMENT_THEORY></metadata><data><meanElements><EPOCH>2025-08-11T20:45:52.944768</EPOCH><MEAN_MOTION>14.37295370</MEAN_MOTION><ECCENTRICITY>.0003061</ECCENTRICITY><INCLINATION>44.9941</INCLINATION><RA_OF_ASC_NODE>277.5786</RA_OF_ASC_NODE><ARG_OF_PERICENTER>241.2437</ARG_OF_PERICENTER><MEAN_ANOMALY>118.8104</MEAN_ANOMALY></meanElements><tleParameters><EPHEMERIS_TYPE>0</EPHEMERIS_TYPE><CLASSIFICATION_TYPE>U</CLASSIFICATION_TYPE><NORAD_CAT_ID>25416</NORAD_CAT_ID><ELEMENT_SET_NO>999</ELEMENT_SET_NO><REV_AT_EPOCH>41231</REV_AT_EPOCH><BSTAR>.23473E-3</BSTAR><MEAN_MOTION_DOT>.564E-5</MEAN_MOTION_DOT><MEAN_MOTION_DDOT>0</MEAN_MOTION_DDOT></tleParameters></data></segment></body></omm>
<omm id="CCSDS_OMM_VERS" version="2.0">
<header><CREATION_DATE/><ORIGINATOR/></header><body><segment><metadata><OBJECT_NAME>ORBCOMM FM16</OBJECT_NAME><OBJECT_ID>1998-046E</OBJECT_ID><CENTER_NAME>EARTH</CENTER_NAME><REF_FRAME>TEME</REF_FRAME><TIME_SYSTEM>UTC</TIME_SYSTEM><MEAN_ELEMENT_THEORY>SGP4</MEAN_ELEMENT_THEORY></metadata><data><meanElements><EPOCH>2025-08-11T22:24:16.495200</EPOCH><MEAN_MOTION>14.39027018</MEAN_MOTION><ECCENTRICITY>.0006724</ECCENTRICITY><INCLINATION>44.9933</INCLINATION><RA_OF_ASC_NODE>268.0878</RA_OF_ASC_NODE><ARG_OF_PERICENTER>233.5797</ARG_OF_PERICENTER><MEAN_ANOMALY>126.4432</MEAN_ANOMALY></meanElements><tleParameters><EPHEMERIS_TYPE>0</EPHEMERIS_TYPE><CLASSIFICATION_TYPE>U</CLASSIFICATION_TYPE><NORAD_CAT_ID>25417</NORAD_CAT_ID><ELEMENT_SET_NO>999</ELEMENT_SET_NO><REV_AT_EPOCH>41228</REV_AT_EPOCH><BSTAR>.27484E-3</BSTAR><MEAN_MOTION_DOT>.714E-5</MEAN_MOTION_DOT><MEAN_MOTION_DDOT>0</MEAN_MOTION_DDOT></tleParameters></data></segment></body></omm>
<omm id="CCSDS_OMM_VERS" version="2.0">
<header><CREATION_DATE/><ORIGINATOR/></header><body><segment><metadata><OBJECT_NAME>ORBCOMM FM15</OBJECT_NAME><OBJECT_ID>1998-046F</OBJECT_ID><CENTER_NAME>EARTH</CENTER_NAME><REF_FRAME>TEME</REF_FRAME><TIME_SYSTEM>UTC</TIME_SYSTEM><MEAN_ELEMENT_THEORY>SGP4</MEAN_ELEMENT_THEORY></metadata><data><meanElements><EPOCH>2025-08-11T20:29:53.261088</EPOCH><MEAN_MOTION>14.38669559</MEAN_MOTION><ECCENTRICITY>.0006362</ECCENTRICITY><INCLINATION>44.9967</INCLINATION><RA_OF_ASC_NODE>273.7774</RA_OF_ASC_NODE><ARG_OF_PERICENTER>232.9755</ARG_OF_PERICENTER><MEAN_ANOMALY>127.0512</MEAN_ANOMALY></meanElements><tleParameters><EPHEMERIS_TYPE>0</EPHEMERIS_TYPE><CLASSIFICATION_TYPE>U</CLASSIFICATION_TYPE><NORAD_CAT_ID>25418</NORAD_CAT_ID><ELEMENT_SET_NO>999</ELEMENT_SET_NO><REV_AT_EPOCH>41226</REV_AT_EPOCH><BSTAR>.30531E-3</BSTAR><MEAN_MOTION_DOT>.802E-5</MEAN_MOTION_DOT><MEAN_MOTION_DDOT>0</MEAN_MOTION_DDOT></tleParameters></data></segment></body></omm>
<omm id="CCSDS_OMM_VERS" version="2.0">
<header><CREATION_DATE/><ORIGINATOR/></header><body><segment><metadata><OBJECT_NAME>ORBCOMM FM14</OBJECT_NAME><OBJECT_ID>1998-046G</OBJECT_ID><CENTER_NAME>EARTH</CENTER_NAME><REF_FRAME>TEME</REF_FRAME><TIME_SYSTEM>UTC</TIME_SYSTEM><MEAN_ELEMENT_THEORY>SGP4</MEAN_ELEMENT_THEORY></metadata><data><meanElements><EPOCH>2025-08-11T20:35:14.096256</EPOCH><MEAN_MOTION>14.39036233</MEAN_MOTION><ECCENTRICITY>.0005171</ECCENTRICITY><INCLINATION>44.9954</INCLINATION><RA_OF_ASC_NODE>271.8357</RA_OF_ASC_NODE><ARG_OF_PERICENTER>233.2769</ARG_OF_PERICENTER><MEAN_ANOMALY>126.7605</MEAN_ANOMALY></meanElements><tleParameters><EPHEMERIS_TYPE>0</EPHEMERIS_TYPE><CLASSIFICATION_TYPE>U</CLASSIFICATION_TYPE><NORAD_CAT_ID>25419</NORAD_CAT_ID><ELEMENT_SET_NO>999</ELEMENT_SET_NO><REV_AT_EPOCH>41223</REV_AT_EPOCH><BSTAR>.31813E-3</BSTAR><MEAN_MOTION_DOT>.849E-5</MEAN_MOTION_DOT><MEAN_MOTION_DDOT>0</MEAN_MOTION_DDOT></tleParameters></data></segment></body></omm>
<omm id="CCSDS_OMM_VERS" version="2.0">
<header><CREATION_DATE/><ORIGINATOR/></header><body><segment><metadata><OBJECT_NAME>ORBCOMM FM13</OBJECT_NAME><OBJECT_ID>1998-046H</OBJECT_ID><CENTER_NAME>EARTH</CENTER_NAME><REF_FRAME>TEME</REF_FRAME><TIME_SYSTEM>UTC</TIME_SYSTEM><MEAN_ELEMENT_THEORY>SGP4</MEAN_ELEMENT_THEORY></metadata><data><meanElements><EPOCH>2025-08-12T03:49:45.237504</EPOCH><MEAN_MOTION>14.37772090</MEAN_MOTION><ECCENTRICITY>.0006813</ECCENTRICITY><INCLINATION>44.9974</INCLINATION><RA_OF_ASC_NODE>278.9273</RA_OF_ASC_NODE><ARG_OF_PERICENTER>215.7794</ARG_OF_PERICENTER><MEAN_ANOMALY>144.2598</MEAN_ANOMALY></meanElements><tleParameters><EPHEMERIS_TYPE>0</EPHEMERIS_TYPE><CLASSIFICATION_TYPE>U</CLASSIFICATION_TYPE><NORAD_CAT_ID>25420</NORAD_CAT_ID><ELEMENT_SET_NO>999</ELEMENT_SET_NO><REV_AT_EPOCH>41242</REV_AT_EPOCH><BSTAR>.29594E-3</BSTAR><MEAN_MOTION_DOT>.757E-5</MEAN_MOTION_DOT><MEAN_MOTION_DDOT>0</MEAN_MOTION_DDOT></tleParameters></data></segment></body></omm>
<omm id="CCSDS_OMM_VERS" version="2.0">
<header><CREATION_DATE/><ORIGINATOR/></header><body><segment><metadata><OBJECT_NAME>ORBCOMM FM21</OBJECT_NAME><OBJECT_ID>1998-053A</OBJECT_ID><CENTER_NAME>EARTH</CENTER_NAME><REF_FRAME>TEME</REF_FRAME><TIME_SYSTEM>UTC</TIME_SYSTEM><MEAN_ELEMENT_THEORY>SGP4</MEAN_ELEMENT_THEORY></metadata><data><meanElements><EPOCH>2025-08-12T02:37:18.245280</EPOCH><MEAN_MOTION>14.37437510</MEAN_MOTION><ECCENTRICITY>.0002509</ECCENTRICITY><INCLINATION>45.0098</INCLINATION><RA_OF_ASC_NODE>4.6493</RA_OF_ASC_NODE><ARG_OF_PERICENTER>165.5893</ARG_OF_PERICENTER><MEAN_ANOMALY>194.5027</MEAN_ANOMALY></meanElements><tleParameters><EPHEMERIS_TYPE>0</EPHEMERIS_TYPE><CLASSIFICATION_TYPE>U</CLASSIFICATION_TYPE><NORAD_CAT_ID>25475</NORAD_CAT_ID><ELEMENT_SET_NO>999</ELEMENT_SET_NO><REV_AT_EPOCH>40562</REV_AT_EPOCH><BSTAR>.27624E-3</BSTAR><MEAN_MOTION_DOT>.692E-5</MEAN_MOTION_DOT><MEAN_MOTION_DDOT>0</MEAN_MOTION_DDOT></tleParameters></data></segment></body></omm>
<omm id="CCSDS_OMM_VERS" version="2.0">
<header><CREATION_DATE/><ORIGINATOR/></header><body><segment><metadata><OBJECT_NAME>ORBCOMM FM22</OBJECT_NAME><OBJECT_ID>1998-053B</OBJECT_ID><CENTER_NAME>EARTH</CENTER_NAME><REF_FRAME>TEME</REF_FRAME><TIME_SYSTEM>UTC</TIME_SYSTEM><MEAN_ELEMENT_THEORY>SGP4</MEAN_ELEMENT_THEORY></metadata><data><meanElements><EPOCH>2025-08-11T16:31:43.711104</EPOCH><MEAN_MOTION>14.38499902</MEAN_MOTION><ECCENTRICITY>.0004282</ECCENTRICITY><INCLINATION>45.0090</INCLINATION><RA_OF_ASC_NODE>1.0425</RA_OF_ASC_NODE><ARG_OF_PERICENTER>157.5036</ARG_OF_PERICENTER><MEAN_ANOMALY>202.6001</MEAN_ANOMALY></meanElements><tleParameters><EPHEMERIS_TYPE>0</EPHEMERIS_TYPE><CLASSIFICATION_TYPE>U</CLASSIFICATION_TYPE><NORAD_CAT_ID>25476</NORAD_CAT_ID><ELEMENT_SET_NO>999</ELEMENT_SET_NO><REV_AT_EPOCH>40526</REV_AT_EPOCH><BSTAR>.38696E-3</BSTAR><MEAN_MOTION_DOT>.1051E-4</MEAN_MOTION_DOT><MEAN_MOTION_DDOT>0</MEAN_MOTION_DDOT></tleParameters></data></segment></body></omm>

</ndm>
