ORBCOMM FM20            
1 25416U 98046D   25223.86519612  .00000564  00000+0  23473-3 0  9993
2 25416  44.9941 277.5786 0003061 241.2437 118.8104 14.37295370412311
ORBCOMM FM16            
1 25417U 98046E   25223.93352425  .00000714  00000+0  27484-3 0  9992
2 25417  44.9933 268.0878 0006724 233.5797 126.4432 14.39027018412281
ORBCOMM FM15            
1 25418U 98046F   25223.85408867  .00000802  00000+0  30531-3 0  9991
2 25418  44.9967 273.7774 0006362 232.9755 127.0512 14.38669559412267
ORBCOMM FM14            
1 25419U 98046G   25223.85780204  .00000849  00000+0  31813-3 0  9995
2 25419  44.9954 271.8357 0005171 233.2769 126.7605 14.39036233412230
ORBCOMM FM13            
1 25420U 98046H   25224.15955136  .00000757  00000+0  29594-3 0  9990
2 25420  44.9974 278.9273 0006813 215.7794 144.2598 14.37772090412429
ORBCOMM FM21            
1 25475U 98053A   25224.10923895  .00000692  00000+0  27624-3 0  9990
2 25475  45.0098   4.6493 0002509 165.5893 194.5027 14.37437510405620
ORBCOMM FM22            
1 25476U 98053B   25223.68870036  .00001051  00000+0  38696-3 0  9992
2 25476  45.0090   1.0425 0004282 157.5036 202.6001 14.38499902405266
